{"type": "FeatureCollection", "features": [ {"type": "Feature", "properties": {"norad_id": 40799, "name": "COSMOS 2251 DEB", "group": "cosmos-2251-debris", "lat": -64.91645776943095, "lon": -58.707084746513964, "alt_km": 558.9105405263517, "timestamp": "2025-12-20T03:42:47.792687+00:00", "meta": {"OBJECT_NAME": "COSMOS 2251 DEB", "OBJECT_ID": "1993-036BWC", "EPOCH": "2025-12-16T13:34:01.060320", "MEAN_MOTION": 14.96697184, "ECCENTRICITY": 0.01191597, "INCLINATION": 73.9265, "RA_OF_ASC_NODE": 90.5746, "ARG_OF_PERICENTER": 331.7111, "MEAN_ANOMALY": 27.7633, "EPHEMERIS_TYPE": 0, "CLASSIFICATION_TYPE": "U", "NORAD_CAT_ID": 40799, "ELEMENT_SET_NO": 999, "REV_AT_EPOCH": 50034, "BSTAR": 0.00030724083, "MEAN_MOTION_DOT": 4.009e-05, "MEAN_MOTION_DDOT": 0}, "tle": {"line1": "1 40799U 93036BWC 25350.56529005  .00004009  00000+0  30724-3 0  9998", "line2": "2 40799  73.9265  90.5746 0119159 331.7111  27.7633 14.96697184500342"}}, "geometry": {"type": "Point", "coordinates": [-58.707084746513964, -64.91645776943095]}}, {"type": "Feature", "properties": {"norad_id": 40802, "name": "COSMOS 2251 DEB", "group": "cosmos-2251-debris", "lat": 28.890517871058872, "lon": -50.62068818612249, "alt_km": 631.4953845358959, "timestamp": "2025-12-20T03:42:47.792697+00:00", "meta": {"OBJECT_NAME": "COSMOS 2251 DEB", "OBJECT_ID": "1993-036BWF", "EPOCH": "2025-12-17T16:32:13.649568", "MEAN_MOTION": 14.77662029, "ECCENTRICITY": 0.00629965, "INCLINATION": 74.0395, "RA_OF_ASC_NODE": 143.3018, "ARG_OF_PERICENTER": 241.0781, "MEAN_ANOMALY": 118.4067, "EPHEMERIS_TYPE": 0, "CLASSIFICATION_TYPE": "U", "NORAD_CAT_ID": 40802, "ELEMENT_SET_NO": 999, "REV_AT_EPOCH": 64482, "BSTAR": 0.00061564393, "MEAN_MOTION_DOT": 4.522e-05, "MEAN_MOTION_DDOT": 0}, "tle": {"line1": "1 40802U 93036BWF 25351.68904687  .00004522  00000+0  61564-3 0  9996", "line2": "2 40802  74.0395 143.3018 0062996 241.0781 118.4067 14.77662029644824"}}, "geometry": {"type": "Point", "coordinates": [-50.62068818612249, 28.890517871058872]}}, {"type": "Feature", "properties": {"norad_id": 40803, "name": "COSMOS 2251 DEB", "group": "cosmos-2251-debris", "lat": 23.011821588605663, "lon": 44.91140924565536, "alt_km": 734.6825858928096, "timestamp": "2025-12-20T03:42:47.792707+00:00", "meta": {"OBJECT_NAME": "COSMOS 2251 DEB", "OBJECT_ID": "1993-036BWG", "EPOCH": "2025-12-18T13:33:58.856256", "MEAN_MOTION": 14.51832386, "ECCENTRICITY": 0.0034045, "INCLINATION": 74.0153, "RA_OF_ASC_NODE": 40.9148, "ARG_OF_PERICENTER": 256.5349, "MEAN_ANOMALY": 103.2017, "EPHEMERIS_TYPE": 0, "CLASSIFICATION_TYPE": "U", "NORAD_CAT_ID": 40803, "ELEMENT_SET_NO": 999, "REV_AT_EPOCH": 58837, "BSTAR": 0.00023751, "MEAN_MOTION_DOT": 9.34e-06, "MEAN_MOTION_DDOT": 0}, "tle": {"line1": "1 40803U 93036BWG 25352.56526454  .00000934  00000+0  23751-3 0  9996", "line2": "2 40803  74.0153  40.9148 0034045 256.5349 103.2017 14.51832386588379"}}, "geometry": {"type": "Point", "coordinates": [44.91140924565536, 23.011821588605663]}}, {"type": "Feature", "properties": {"norad_id": 40808, "name": "COSMOS 2251 DEB", "group": "cosmos-2251-debris", "lat": -2.106702087263837, "lon": 130.55404463152465, "alt_km": 677.6628329448658, "timestamp": "2025-12-20T03:42:47.792718+00:00", "meta": {"OBJECT_NAME": "COSMOS 2251 DEB", "OBJECT_ID": "1993-036BWM", "EPOCH": "2025-12-18T11:05:09.828384", "MEAN_MOTION": 14.67577712, "ECCENTRICITY": 0.00086916, "INCLINATION": 74.0411, "RA_OF_ASC_NODE": 134.4242, "ARG_OF_PERICENTER": 170.7227, "MEAN_ANOMALY": 247.3074, "EPHEMERIS_TYPE": 0, "CLASSIFICATION_TYPE": "U", "NORAD_CAT_ID": 40808, "ELEMENT_SET_NO": 999, "REV_AT_EPOCH": 63703, "BSTAR": 0.0013644705, "MEAN_MOTION_DOT": 7.729e-05, "MEAN_MOTION_DDOT": 0}, "tle": {"line1": "1 40808U 93036BWM 25352.46191931  .00007729  00000+0  13645-2 0  9997", "line2": "2 40808  74.0411 134.4242 0008691 170.7227 247.3074 14.67577712637032"}}, "geometry": {"type": "Point", "coordinates": [130.55404463152465, -2.106702087263837]}}, {"type": "Feature", "properties": {"norad_id": 40810, "name": "COSMOS 2251 DEB", "group": "cosmos-2251-debris", "lat": 38.606782226778556, "lon": 73.82860647203327, "alt_km": 706.6670980680001, "timestamp": "2025-12-20T03:42:47.792727+00:00", "meta": {"OBJECT_NAME": "COSMOS 2251 DEB", "OBJECT_ID": "1993-036BWP", "EPOCH": "2025-12-19T04:29:06.134784", "MEAN_MOTION": 14.58759616, "ECCENTRICITY": 0.00182272, "INCLINATION": 74.037, "RA_OF_ASC_NODE": 62.4589, "ARG_OF_PERICENTER": 213.6462, "MEAN_ANOMALY": 146.3547, "EPHEMERIS_TYPE": 0, "CLASSIFICATION_TYPE": "U", "NORAD_CAT_ID": 40810, "ELEMENT_SET_NO": 999, "REV_AT_EPOCH": 61777, "BSTAR": 0.00051940832, "MEAN_MOTION_DOT": 2.403e-05, "MEAN_MOTION_DDOT": 0}, "tle": {"line1": "1 40810U 93036BWP 25353.18687656  .00002403  00000+0  51941-3 0  9990", "line2": "2 40810  74.0370  62.4589 0018227 213.6462 146.3547 14.58759616617774"}}, "geometry": {"type": "Point", "coordinates": [73.82860647203327, 38.606782226778556]}}, {"type": "Feature", "properties": {"norad_id": 46271, "name": "COSMOS 2251 DEB", "group": "cosmos-2251-debris", "lat": 73.1970362295336, "lon": 135.56782819253885, "alt_km": 718.2846920765724, "timestamp": "2025-12-20T03:42:47.792737+00:00", "meta": {"OBJECT_NAME": "COSMOS 2251 DEB", "OBJECT_ID": "1993-036BWT", "EPOCH": "2025-12-17T22:23:15.986688", "MEAN_MOTION": 14.51441027, "ECCENTRICITY": 0.00399725, "INCLINATION": 74.0477, "RA_OF_ASC_NODE": 68.4458, "ARG_OF_PERICENTER": 189.2324, "MEAN_ANOMALY": 170.8108, "EPHEMERIS_TYPE": 0, "CLASSIFICATION_TYPE": "U", "NORAD_CAT_ID": 46271, "ELEMENT_SET_NO": 999, "REV_AT_EPOCH": 84717, "BSTAR": 0.00023861779, "MEAN_MOTION_DOT": 9.34e-06, "MEAN_MOTION_DDOT": 0}, "tle": {"line1": "1 46271U 93036BWT 25351.93282392  .00000934  00000+0  23862-3 0  9994", "line2": "2 46271  74.0477  68.4458 0039972 189.2324 170.8108 14.51441027847176"}}, "geometry": {"type": "Point", "coordinates": [135.56782819253885, 73.1970362295336]}}, {"type": "Feature", "properties": {"norad_id": 46430, "name": "COSMOS 2251 DEB", "group": "cosmos-2251-debris", "lat": 31.681639097309183, "lon": 152.0264840575186, "alt_km": 748.6558807276006, "timestamp": "2025-12-20T03:42:47.792747+00:00", "meta": {"OBJECT_NAME": "COSMOS 2251 DEB", "OBJECT_ID": "1993-036BWU", "EPOCH": "2025-12-19T07:10:40.968192", "MEAN_MOTION": 14.51392906, "ECCENTRICITY": 0.0103211, "INCLINATION": 73.9139, "RA_OF_ASC_NODE": 343.9071, "ARG_OF_PERICENTER": 263.0684, "MEAN_ANOMALY": 95.8727, "EPHEMERIS_TYPE": 0, "CLASSIFICATION_TYPE": "U", "NORAD_CAT_ID": 46430, "ELEMENT_SET_NO": 999, "REV_AT_EPOCH": 79778, "BSTAR": 0.0013871, "MEAN_MOTION_DOT": 5.902e-05, "MEAN_MOTION_DDOT": 0}, "tle": {"line1": "1 46430U 93036BWU 25353.29908528  .00005902  00000+0  13871-2 0  9996", "line2": "2 46430  73.9139 343.9071 0103211 263.0684  95.8727 14.51392906797781"}}, "geometry": {"type": "Point", "coordinates": [152.0264840575186, 31.681639097309183]}}, {"type": "Feature", "properties": {"norad_id": 46432, "name": "COSMOS 2251 DEB", "group": "cosmos-2251-debris", "lat": 73.82311976868525, "lon": -166.22497244203757, "alt_km": 1305.4429018016126, "timestamp": "2025-12-20T03:42:47.792757+00:00", "meta": {"OBJECT_NAME": "COSMOS 2251 DEB", "OBJECT_ID": "1993-036BWW", "EPOCH": "2025-12-16T14:54:01.415808", "MEAN_MOTION": 13.36645779, "ECCENTRICITY": 0.04740577, "INCLINATION": 73.8726, "RA_OF_ASC_NODE": 105.1782, "ARG_OF_PERICENTER": 222.0894, "MEAN_ANOMALY": 155.0222, "EPHEMERIS_TYPE": 0, "CLASSIFICATION_TYPE": "U", "NORAD_CAT_ID": 46432, "ELEMENT_SET_NO": 999, "REV_AT_EPOCH": 67018, "BSTAR": 0.0010887976, "MEAN_MOTION_DOT": 1.051e-05, "MEAN_MOTION_DDOT": 0}, "tle": {"line1": "1 46432U 93036BWW 25350.62084972  .00001051  00000+0  10888-2 0  9996", "line2": "2 46432  73.8726 105.1782 0474057 222.0894 155.0222 13.36645779670182"}}, "geometry": {"type": "Point", "coordinates": [-166.22497244203757, 73.82311976868525]}}, {"type": "Feature", "properties": {"norad_id": 47045, "name": "COSMOS 2251 DEB", "group": "cosmos-2251-debris", "lat": -12.624777672662283, "lon": 131.84167549875207, "alt_km": 759.6832419912407, "timestamp": "2025-12-20T03:42:47.792768+00:00", "meta": {"OBJECT_NAME": "COSMOS 2251 DEB", "OBJECT_ID": "1993-036BWZ", "EPOCH": "2025-12-08T18:12:30.966336", "MEAN_MOTION": 14.3889696, "ECCENTRICITY": 0.00302024, "INCLINATION": 74.0568, "RA_OF_ASC_NODE": 156.4972, "ARG_OF_PERICENTER": 298.2595, "MEAN_ANOMALY": 80.2379, "EPHEMERIS_TYPE": 0, "CLASSIFICATION_TYPE": "U", "NORAD_CAT_ID": 47045, "ELEMENT_SET_NO": 999, "REV_AT_EPOCH": 7748, "BSTAR": 0.00016053941, "MEAN_MOTION_DOT": 4.71e-06, "MEAN_MOTION_DDOT": 0}, "tle": {"line1": "1 47045U 93036BWZ 25342.75869174  .00000471  00000+0  16054-3 0  9994", "line2": "2 47045  74.0568 156.4972 0030202 298.2595  80.2379 14.38896960 77482"}}, "geometry": {"type": "Point", "coordinates": [131.84167549875207, -12.624777672662283]}}, {"type": "Feature", "properties": {"norad_id": 47048, "name": "COSMOS 2251 DEB", "group": "cosmos-2251-debris", "lat": -73.8469263689257, "lon": -137.6254480305846, "alt_km": 797.3916103817219, "timestamp": "2025-12-20T03:42:47.792778+00:00", "meta": {"OBJECT_NAME": "COSMOS 2251 DEB", "OBJECT_ID": "1993-036BXC", "EPOCH": "2025-12-19T13:47:33.177120", "MEAN_MOTION": 14.52356803, "ECCENTRICITY": 0.0132576, "INCLINATION": 73.9784, "RA_OF_ASC_NODE": 306.2511, "ARG_OF_PERICENTER": 132.3729, "MEAN_ANOMALY": 347.2197, "EPHEMERIS_TYPE": 0, "CLASSIFICATION_TYPE": "U", "NORAD_CAT_ID": 47048, "ELEMENT_SET_NO": 999, "REV_AT_EPOCH": 59789, "BSTAR": 0.00066595, "MEAN_MOTION_DOT": 3.012e-05, "MEAN_MOTION_DDOT": 0}, "tle": {"line1": "1 47048U 93036BXC 25353.57468955  .00003012  00000+0  66595-3 0  9990", "line2": "2 47048  73.9784 306.2511 0132576 132.3729 347.2197 14.52356803597890"}}, "geometry": {"type": "Point", "coordinates": [-137.6254480305846, -73.8469263689257]}}]}